[
  {
    "COMMENT": "GENERATED VIA SPACETRACK.ORG API",
    "ORIGINATOR": "18 SPCS",
    "NORAD_CAT_ID": "27421",
    "OBJECT_NAME": "SPOT 5",
    "OBJECT_TYPE": "PAYLOAD",
    "CLASSIFICATION_TYPE": "U",
    "INTLDES": "02021A",
    "EPOCH": "2023-05-29 03:49:21",
    "EPOCH_MICROSECONDS": "50688",
    "MEAN_MOTION": "14.52637412",
    "ECCENTRICITY": "0.0134977",
    "INCLINATION": "98.1402",
    "RA_OF_ASC_NODE": "212.7183",
    "ARG_OF_PERICENTER": "132.2679",
    "MEAN_ANOMALY": "229.0056",
    "EPHEMERIS_TYPE": "0",
    "ELEMENT_SET_NO": "999",
    "REV_AT_EPOCH": "10084",
    "BSTAR": "0.000086126",
    "MEAN_MOTION_DOT": "0.00000348",
    "MEAN_MOTION_DDOT": "0",
    "FILE": "3920065",
    "TLE_LINE0": "0 SPOT 5",
    "TLE_LINE1": "1 27421U 02021A   23149.15927142  .00000348  00000-0  86126-4 0  9993",
    "TLE_LINE2": "2 27421  98.1402 212.7183 0134977 132.2679 229.0056 14.52637412100849",
    "OBJECT_ID": "2002-021A",
    "OBJECT_NUMBER": "27421",
    "SEMIMAJOR_AXIS": "7095.184",
    "PERIOD": "99.130",
    "APOGEE": "812.818",
    "PERIGEE": "621.281",
    "DECAYED": "0"
  },
  {
    "COMMENT": "GENERATED VIA SPACETRACK.ORG API",
    "ORIGINATOR": "18 SPCS",
    "NORAD_CAT_ID": "27421",
    "OBJECT_NAME": "SPOT 5",
    "OBJECT_TYPE": "PAYLOAD",
    "CLASSIFICATION_TYPE": "U",
    "INTLDES": "02021A",
    "EPOCH": "2023-05-29 17:02:52",
    "EPOCH_MICROSECONDS": "69632",
    "MEAN_MOTION": "14.52637802",
    "ECCENTRICITY": "0.0135002",
    "INCLINATION": "98.1402",
    "RA_OF_ASC_NODE": "213.2532",
    "ARG_OF_PERICENTER": "130.5802",
    "MEAN_ANOMALY": "230.7237",
    "EPHEMERIS_TYPE": "0",
    "ELEMENT_SET_NO": "999",
    "REV_AT_EPOCH": "10096",
    "BSTAR": "0.000083374",
    "MEAN_MOTION_DOT": "0.00000336",
    "MEAN_MOTION_DDOT": "0",
    "FILE": "3920206",
    "TLE_LINE0": "0 SPOT 5",
    "TLE_LINE1": "1 27421U 02021A   23149.71032488  .00000336  00000-0  83374-4 0  9994",
    "TLE_LINE2": "2 27421  98.1402 213.2532 0135002 130.5802 230.7237 14.52637802100968",
    "OBJECT_ID": "2002-021A",
    "OBJECT_NUMBER": "27421",
    "SEMIMAJOR_AXIS": "7095.183",
    "PERIOD": "99.130",
    "APOGEE": "812.835",
    "PERIGEE": "621.262",
    "DECAYED": "0"
  },
  {
    "COMMENT": "GENERATED VIA SPACETRACK.ORG API",
    "ORIGINATOR": "18 SPCS",
    "NORAD_CAT_ID": "27421",
    "OBJECT_NAME": "SPOT 5",
    "OBJECT_TYPE": "PAYLOAD",
    "CLASSIFICATION_TYPE": "U",
    "INTLDES": "02021A",
    "EPOCH": "2023-05-29 22:00:26",
    "EPOCH_MICROSECONDS": "191584",
    "MEAN_MOTION": "14.5263793",
    "ECCENTRICITY": "0.0135006",
    "INCLINATION": "98.1402",
    "RA_OF_ASC_NODE": "213.4538",
    "ARG_OF_PERICENTER": "129.9532",
    "MEAN_ANOMALY": "231.3616",
    "EPHEMERIS_TYPE": "0",
    "ELEMENT_SET_NO": "999",
    "REV_AT_EPOCH": "10095",
    "BSTAR": "0.000082485",
    "MEAN_MOTION_DOT": "0.00000332",
    "MEAN_MOTION_DDOT": "0",
    "FILE": "3920354",
    "TLE_LINE0": "0 SPOT 5",
    "TLE_LINE1": "1 27421U 02021A   23149.91696981  .00000332  00000-0  82485-4 0  9998",
    "TLE_LINE2": "2 27421  98.1402 213.4538 0135006 129.9532 231.3616 14.52637930100951",
    "OBJECT_ID": "2002-021A",
    "OBJECT_NUMBER": "27421",
    "SEMIMAJOR_AXIS": "7095.183",
    "PERIOD": "99.130",
    "APOGEE": "812.837",
    "PERIGEE": "621.259",
    "DECAYED": "0"
  },
  {
    "COMMENT": "GENERATED VIA SPACETRACK.ORG API",
    "ORIGINATOR": "18 SPCS",
    "NORAD_CAT_ID": "27421",
    "OBJECT_NAME": "SPOT 5",
    "OBJECT_TYPE": "PAYLOAD",
    "CLASSIFICATION_TYPE": "U",
    "INTLDES": "02021A",
    "EPOCH": "2023-05-30 02:58:00",
    "EPOCH_MICROSECONDS": "310944",
    "MEAN_MOTION": "14.52638069",
    "ECCENTRICITY": "0.0135011",
    "INCLINATION": "98.1402",
    "RA_OF_ASC_NODE": "213.6544",
    "ARG_OF_PERICENTER": "129.3222",
    "MEAN_ANOMALY": "232.0035",
    "EPHEMERIS_TYPE": "0",
    "ELEMENT_SET_NO": "999",
    "REV_AT_EPOCH": "10102",
    "BSTAR": "0.000080865",
    "MEAN_MOTION_DOT": "0.00000324",
    "MEAN_MOTION_DDOT": "0",
    "FILE": "3920543",
    "TLE_LINE0": "0 SPOT 5",
    "TLE_LINE1": "1 27421U 02021A   23150.12361471  .00000324  00000-0  80865-4 0  9997",
    "TLE_LINE2": "2 27421  98.1402 213.6544 0135011 129.3222 232.0035 14.52638069101022",
    "OBJECT_ID": "2002-021A",
    "OBJECT_NUMBER": "27421",
    "SEMIMAJOR_AXIS": "7095.182",
    "PERIOD": "99.130",
    "APOGEE": "812.840",
    "PERIGEE": "621.255",
    "DECAYED": "0"
  },
  {
    "COMMENT": "GENERATED VIA SPACETRACK.ORG API",
    "ORIGINATOR": "18 SPCS",
    "NORAD_CAT_ID": "27421",
    "OBJECT_NAME": "SPOT 5",
    "OBJECT_TYPE": "PAYLOAD",
    "CLASSIFICATION_TYPE": "U",
    "INTLDES": "02021A",
    "EPOCH": "2023-05-30 04:37:11",
    "EPOCH_MICROSECONDS": "683776",
    "MEAN_MOTION": "14.52638127",
    "ECCENTRICITY": "0.0135014",
    "INCLINATION": "98.1402",
    "RA_OF_ASC_NODE": "213.7213",
    "ARG_OF_PERICENTER": "129.1111",
    "MEAN_ANOMALY": "232.2181",
    "EPHEMERIS_TYPE": "0",
    "ELEMENT_SET_NO": "999",
    "REV_AT_EPOCH": "10103",
    "BSTAR": "0.000080787",
    "MEAN_MOTION_DOT": "0.00000324",
    "MEAN_MOTION_DDOT": "0",
    "FILE": "3920834",
    "TLE_LINE0": "0 SPOT 5",
    "TLE_LINE1": "1 27421U 02021A   23150.19249634  .00000324  00000-0  80787-4 0  9993",
    "TLE_LINE2": "2 27421  98.1402 213.7213 0135014 129.1111 232.2181 14.52638127101034",
    "OBJECT_ID": "2002-021A",
    "OBJECT_NUMBER": "27421",
    "SEMIMAJOR_AXIS": "7095.182",
    "PERIOD": "99.130",
    "APOGEE": "812.842",
    "PERIGEE": "621.252",
    "DECAYED": "0"
  },
  {
    "COMMENT": "GENERATED VIA SPACETRACK.ORG API",
    "ORIGINATOR": "18 SPCS",
    "NORAD_CAT_ID": "27421",
    "OBJECT_NAME": "SPOT 5",
    "OBJECT_TYPE": "PAYLOAD",
    "CLASSIFICATION_TYPE": "U",
    "INTLDES": "02021A",
    "EPOCH": "2023-05-30 04:37:11",
    "EPOCH_MICROSECONDS": "683776",
    "MEAN_MOTION": "14.52638127",
    "ECCENTRICITY": "0.0135014",
    "INCLINATION": "98.1402",
    "RA_OF_ASC_NODE": "213.7213",
    "ARG_OF_PERICENTER": "129.1111",
    "MEAN_ANOMALY": "232.2181",
    "EPHEMERIS_TYPE": "0",
    "ELEMENT_SET_NO": "999",
    "REV_AT_EPOCH": "10099",
    "BSTAR": "0.000080787",
    "MEAN_MOTION_DOT": "0.00000324",
    "MEAN_MOTION_DDOT": "0",
    "FILE": "3920920",
    "TLE_LINE0": "0 SPOT 5",
    "TLE_LINE1": "1 27421U 02021A   23150.19249634  .00000324  00000-0  80787-4 0  9993",
    "TLE_LINE2": "2 27421  98.1402 213.7213 0135014 129.1111 232.2181 14.52638127100998",
    "OBJECT_ID": "2002-021A",
    "OBJECT_NUMBER": "27421",
    "SEMIMAJOR_AXIS": "7095.182",
    "PERIOD": "99.130",
    "APOGEE": "812.842",
    "PERIGEE": "621.252",
    "DECAYED": "0"
  },
  {
    "COMMENT": "GENERATED VIA SPACETRACK.ORG API",
    "ORIGINATOR": "18 SPCS",
    "NORAD_CAT_ID": "27421",
    "OBJECT_NAME": "SPOT 5",
    "OBJECT_TYPE": "PAYLOAD",
    "CLASSIFICATION_TYPE": "U",
    "INTLDES": "02021A",
    "EPOCH": "2023-05-30 16:11:31",
    "EPOCH_MICROSECONDS": "272000",
    "MEAN_MOTION": "14.5263856",
    "ECCENTRICITY": "0.0135037",
    "INCLINATION": "98.1402",
    "RA_OF_ASC_NODE": "214.1894",
    "ARG_OF_PERICENTER": "127.6347",
    "MEAN_ANOMALY": "233.7194",
    "EPHEMERIS_TYPE": "0",
    "ELEMENT_SET_NO": "999",
    "REV_AT_EPOCH": "10110",
    "BSTAR": "0.0000819",
    "MEAN_MOTION_DOT": "0.00000329",
    "MEAN_MOTION_DDOT": "0",
    "FILE": "3920950",
    "TLE_LINE0": "0 SPOT 5",
    "TLE_LINE1": "1 27421U 02021A   23150.67466750  .00000329  00000-0  81900-4 0  9999",
    "TLE_LINE2": "2 27421  98.1402 214.1894 0135037 127.6347 233.7194 14.52638560101102",
    "OBJECT_ID": "2002-021A",
    "OBJECT_NUMBER": "27421",
    "SEMIMAJOR_AXIS": "7095.181",
    "PERIOD": "99.130",
    "APOGEE": "812.857",
    "PERIGEE": "621.235",
    "DECAYED": "0"
  },
  {
    "COMMENT": "GENERATED VIA SPACETRACK.ORG API",
    "ORIGINATOR": "18 SPCS",
    "NORAD_CAT_ID": "27421",
    "OBJECT_NAME": "SPOT 5",
    "OBJECT_TYPE": "PAYLOAD",
    "CLASSIFICATION_TYPE": "U",
    "INTLDES": "02021A",
    "EPOCH": "2023-05-30 21:09:05",
    "EPOCH_MICROSECONDS": "375808",
    "MEAN_MOTION": "14.52638693",
    "ECCENTRICITY": "0.0135045",
    "INCLINATION": "98.1402",
    "RA_OF_ASC_NODE": "214.3901",
    "ARG_OF_PERICENTER": "127.0017",
    "MEAN_ANOMALY": "234.3627",
    "EPHEMERIS_TYPE": "0",
    "ELEMENT_SET_NO": "999",
    "REV_AT_EPOCH": "10109",
    "BSTAR": "0.000081546",
    "MEAN_MOTION_DOT": "0.00000327",
    "MEAN_MOTION_DDOT": "0",
    "FILE": "3921192",
    "TLE_LINE0": "0 SPOT 5",
    "TLE_LINE1": "1 27421U 02021A   23150.88131222  .00000327  00000-0  81546-4 0  9999",
    "TLE_LINE2": "2 27421  98.1402 214.3901 0135045 127.0017 234.3627 14.52638693101093",
    "OBJECT_ID": "2002-021A",
    "OBJECT_NUMBER": "27421",
    "SEMIMAJOR_AXIS": "7095.180",
    "PERIOD": "99.130",
    "APOGEE": "812.862",
    "PERIGEE": "621.228",
    "DECAYED": "0"
  },
  {
    "COMMENT": "GENERATED VIA SPACETRACK.ORG API",
    "ORIGINATOR": "18 SPCS",
    "NORAD_CAT_ID": "27421",
    "OBJECT_NAME": "SPOT 5",
    "OBJECT_TYPE": "PAYLOAD",
    "CLASSIFICATION_TYPE": "U",
    "INTLDES": "02021A",
    "EPOCH": "2023-05-31 03:45:50",
    "EPOCH_MICROSECONDS": "840352",
    "MEAN_MOTION": "14.52639055",
    "ECCENTRICITY": "0.0135053",
    "INCLINATION": "98.1401",
    "RA_OF_ASC_NODE": "214.6575",
    "ARG_OF_PERICENTER": "126.1575",
    "MEAN_ANOMALY": "235.2205",
    "EPHEMERIS_TYPE": "0",
    "ELEMENT_SET_NO": "999",
    "REV_AT_EPOCH": "10117",
    "BSTAR": "0.000086922",
    "MEAN_MOTION_DOT": "0.00000352",
    "MEAN_MOTION_DDOT": "0",
    "FILE": "3921283",
    "TLE_LINE0": "0 SPOT 5",
    "TLE_LINE1": "1 27421U 02021A   23151.15683843  .00000352  00000-0  86922-4 0  9992",
    "TLE_LINE2": "2 27421  98.1401 214.6575 0135053 126.1575 235.2205 14.52639055101174",
    "OBJECT_ID": "2002-021A",
    "OBJECT_NUMBER": "27421",
    "SEMIMAJOR_AXIS": "7095.179",
    "PERIOD": "99.130",
    "APOGEE": "812.867",
    "PERIGEE": "621.222",
    "DECAYED": "0"
  }
]